{
  "norad_id": 62964,
  "name": "STARLINK-32887",
  "history": [
    {
      "epoch": "2026-03-28T20:23:16.984896",
      "apogee_km": 476.29199990569214,
      "perigee_km": 474.10085214272385,
      "latitude_deg": 27.70293466004887,
      "longitude_deg": -162.04779456020333,
      "semi_major_axis_km": 6853.333426024208,
      "eccentricity": 0.00015986,
      "inclination_deg": 53.1596,
      "raan_deg": 141.144,
      "arg_perigee_deg": 71.9237,
      "mean_anomaly_deg": 288.1938,
      "mean_motion_rev_day": 15.30206244
    }
  ]
}